STARLINK-36208          
1 67108U 25299G   26001.83336806 -.02061822  00000+0 -36659-1 0  9997
2 67108  42.9993 194.4284 0001501 261.2604 351.9659 15.52629760  4038
STARLINK-35764          
1 67109U 25299H   26001.83336806 -.02064259  00000+0 -36705-1 0  9997
2 67109  42.9992 194.4244 0001457 265.5291 349.6132 15.52631980  3938
STARLINK-35781          
1 67110U 25299J   26001.83336806 -.02074117  00000+0 -36877-1 0  9993
2 67110  42.9991 194.4137 0001543 258.2243   0.7340 15.52649610  3993
STARLINK-35875          
1 67111U 25299K   26001.83336806 -.02069759  00000+0 -36804-1 0  9990
2 67111  42.9991 194.4195 0001452 260.9421 356.1095 15.52639868  3938
STARLINK-35906          
1 67112U 25299L   26001.83336806 -.02209507  00000+0 -39429-1 0  9994
2 67112  42.9989 194.4089 0001619 262.1195 358.7054 15.52770956  3932
STARLINK-35789          
1 67113U 25299M   26001.83336806 -.02209222  00000+0 -39405-1 0  9993
2 67113  42.9990 194.4038 0001638 265.7651 356.9563 15.52783310  3939
STARLINK-36180          
1 67114U 25299N   26001.83336806 -.02228055  00000+0 -39762-1 0  9995
2 67114  42.9989 194.3991 0001579 260.0271   4.6027 15.52800678  4036
STARLINK-35892          
1 67115U 25299P   26001.83336806 -.02279644  00000+0 -40741-1 0  9995
2 67115  42.9990 194.3942 0001390 259.7320   6.7861 15.52849374  3939
STARLINK-35738          
1 67116U 25299Q   26001.83336806 -.02272950  00000+0 -40608-1 0  9991
2 67116  42.9989 194.3898 0001483 261.5031   6.9306 15.52846005  3935
STARLINK-35674          
1 67117U 25299R   26001.83336806 -.02256458  00000+0 -40279-1 0  9991
2 67117  42.9991 194.3851 0001567 260.7748   9.5665 15.52841007  3830
STARLINK-35701          
1 67118U 25299S   26001.83336806 -.02219359  00000+0 -39554-1 0  9995
2 67118  42.9993 194.3805 0001329 271.8793   0.3723 15.52825245  3998
STARLINK-36179          
1 67119U 25299T   26001.83336806 -.02384031  00000+0 -42684-1 0  9994
2 67119  42.9987 194.3709 0001688 263.7275  12.2725 15.52972762  4035
