CCSDS_OMM_VERS = 2.0
CREATION_DATE  = 
ORIGINATOR     = 

OBJECT_NAME    = STARLINK-36208
OBJECT_ID      = 2025-299G
CENTER_NAME    = EARTH
REF_FRAME      = TEME
TIME_SYSTEM    = UTC
MEAN_ELEMENT_THEORY = SGP/SGP4

EPOCH          = 2026-01-01T20:00:03.000384
MEAN_MOTION    = 15.52629760
ECCENTRICITY   = .0001501
INCLINATION    = 42.9993
RA_OF_ASC_NODE = 194.4284
ARG_OF_PERICENTER = 261.2604
MEAN_ANOMALY   = 351.9659

EPHEMERIS_TYPE = 0
CLASSIFICATION_TYPE = U
NORAD_CAT_ID   = 67108
ELEMENT_SET_NO = 999
REV_AT_EPOCH   = 403
BSTAR          = -.36659E-1
MEAN_MOTION_DOT = -.2061822E-1
MEAN_MOTION_DDOT = 0

CCSDS_OMM_VERS = 2.0
CREATION_DATE  = 
ORIGINATOR     = 

OBJECT_NAME    = STARLINK-35764
OBJECT_ID      = 2025-299H
CENTER_NAME    = EARTH
REF_FRAME      = TEME
TIME_SYSTEM    = UTC
MEAN_ELEMENT_THEORY = SGP/SGP4

EPOCH          = 2026-01-01T20:00:03.000384
MEAN_MOTION    = 15.52631980
ECCENTRICITY   = .0001457
INCLINATION    = 42.9992
RA_OF_ASC_NODE = 194.4244
ARG_OF_PERICENTER = 265.5291
MEAN_ANOMALY   = 349.6132

EPHEMERIS_TYPE = 0
CLASSIFICATION_TYPE = U
NORAD_CAT_ID   = 67109
ELEMENT_SET_NO = 999
REV_AT_EPOCH   = 393
BSTAR          = -.36705E-1
MEAN_MOTION_DOT = -.2064259E-1
MEAN_MOTION_DDOT = 0

CCSDS_OMM_VERS = 2.0
CREATION_DATE  = 
ORIGINATOR     = 

OBJECT_NAME    = STARLINK-35781
OBJECT_ID      = 2025-299J
CENTER_NAME    = EARTH
REF_FRAME      = TEME
TIME_SYSTEM    = UTC
MEAN_ELEMENT_THEORY = SGP/SGP4

EPOCH          = 2026-01-01T20:00:03.000384
MEAN_MOTION    = 15.52649610
ECCENTRICITY   = .0001543
INCLINATION    = 42.9991
RA_OF_ASC_NODE = 194.4137
ARG_OF_PERICENTER = 258.2243
MEAN_ANOMALY   = 0.7340

EPHEMERIS_TYPE = 0
CLASSIFICATION_TYPE = U
NORAD_CAT_ID   = 67110
ELEMENT_SET_NO = 999
REV_AT_EPOCH   = 399
BSTAR          = -.36877E-1
MEAN_MOTION_DOT = -.2074117E-1
MEAN_MOTION_DDOT = 0

CCSDS_OMM_VERS = 2.0
CREATION_DATE  = 
ORIGINATOR     = 

OBJECT_NAME    = STARLINK-35875
OBJECT_ID      = 2025-299K
CENTER_NAME    = EARTH
REF_FRAME      = TEME
TIME_SYSTEM    = UTC
MEAN_ELEMENT_THEORY = SGP/SGP4

EPOCH          = 2026-01-01T20:00:03.000384
MEAN_MOTION    = 15.52639868
ECCENTRICITY   = .0001452
INCLINATION    = 42.9991
RA_OF_ASC_NODE = 194.4195
ARG_OF_PERICENTER = 260.9421
MEAN_ANOMALY   = 356.1095

EPHEMERIS_TYPE = 0
CLASSIFICATION_TYPE = U
NORAD_CAT_ID   = 67111
ELEMENT_SET_NO = 999
REV_AT_EPOCH   = 393
BSTAR          = -.36804E-1
MEAN_MOTION_DOT = -.2069759E-1
MEAN_MOTION_DDOT = 0

CCSDS_OMM_VERS = 2.0
CREATION_DATE  = 
ORIGINATOR     = 

OBJECT_NAME    = STARLINK-35906
OBJECT_ID      = 2025-299L
CENTER_NAME    = EARTH
REF_FRAME      = TEME
TIME_SYSTEM    = UTC
MEAN_ELEMENT_THEORY = SGP/SGP4

EPOCH          = 2026-01-01T20:00:03.000384
MEAN_MOTION    = 15.52770956
ECCENTRICITY   = .0001619
INCLINATION    = 42.9989
RA_OF_ASC_NODE = 194.4089
ARG_OF_PERICENTER = 262.1195
MEAN_ANOMALY   = 358.7054

EPHEMERIS_TYPE = 0
CLASSIFICATION_TYPE = U
NORAD_CAT_ID   = 67112
ELEMENT_SET_NO = 999
REV_AT_EPOCH   = 393
BSTAR          = -.39429E-1
MEAN_MOTION_DOT = -.2209507E-1
MEAN_MOTION_DDOT = 0

CCSDS_OMM_VERS = 2.0
CREATION_DATE  = 
ORIGINATOR     = 

OBJECT_NAME    = STARLINK-35789
OBJECT_ID      = 2025-299M
CENTER_NAME    = EARTH
REF_FRAME      = TEME
TIME_SYSTEM    = UTC
MEAN_ELEMENT_THEORY = SGP/SGP4

EPOCH          = 2026-01-01T20:00:03.000384
MEAN_MOTION    = 15.52783310
ECCENTRICITY   = .0001638
INCLINATION    = 42.9990
RA_OF_ASC_NODE = 194.4038
ARG_OF_PERICENTER = 265.7651
MEAN_ANOMALY   = 356.9563

EPHEMERIS_TYPE = 0
CLASSIFICATION_TYPE = U
NORAD_CAT_ID   = 67113
ELEMENT_SET_NO = 999
REV_AT_EPOCH   = 393
BSTAR          = -.39405E-1
MEAN_MOTION_DOT = -.2209222E-1
MEAN_MOTION_DDOT = 0

CCSDS_OMM_VERS = 2.0
CREATION_DATE  = 
ORIGINATOR     = 

OBJECT_NAME    = STARLINK-36180
OBJECT_ID      = 2025-299N
CENTER_NAME    = EARTH
REF_FRAME      = TEME
TIME_SYSTEM    = UTC
MEAN_ELEMENT_THEORY = SGP/SGP4

EPOCH          = 2026-01-01T20:00:03.000384
MEAN_MOTION    = 15.52800678
ECCENTRICITY   = .0001579
INCLINATION    = 42.9989
RA_OF_ASC_NODE = 194.3991
ARG_OF_PERICENTER = 260.0271
MEAN_ANOMALY   = 4.6027

EPHEMERIS_TYPE = 0
CLASSIFICATION_TYPE = U
NORAD_CAT_ID   = 67114
ELEMENT_SET_NO = 999
REV_AT_EPOCH   = 403
BSTAR          = -.39762E-1
MEAN_MOTION_DOT = -.2228055E-1
MEAN_MOTION_DDOT = 0

CCSDS_OMM_VERS = 2.0
CREATION_DATE  = 
ORIGINATOR     = 

OBJECT_NAME    = STARLINK-35892
OBJECT_ID      = 2025-299P
CENTER_NAME    = EARTH
REF_FRAME      = TEME
TIME_SYSTEM    = UTC
MEAN_ELEMENT_THEORY = SGP/SGP4

EPOCH          = 2026-01-01T20:00:03.000384
MEAN_MOTION    = 15.52849374
ECCENTRICITY   = .000139
INCLINATION    = 42.9990
RA_OF_ASC_NODE = 194.3942
ARG_OF_PERICENTER = 259.7320
MEAN_ANOMALY   = 6.7861

EPHEMERIS_TYPE = 0
CLASSIFICATION_TYPE = U
NORAD_CAT_ID   = 67115
ELEMENT_SET_NO = 999
REV_AT_EPOCH   = 393
BSTAR          = -.40741E-1
MEAN_MOTION_DOT = -.2279644E-1
MEAN_MOTION_DDOT = 0

CCSDS_OMM_VERS = 2.0
CREATION_DATE  = 
ORIGINATOR     = 

OBJECT_NAME    = STARLINK-35738
OBJECT_ID      = 2025-299Q
CENTER_NAME    = EARTH
REF_FRAME      = TEME
TIME_SYSTEM    = UTC
MEAN_ELEMENT_THEORY = SGP/SGP4

EPOCH          = 2026-01-01T20:00:03.000384
MEAN_MOTION    = 15.52846005
ECCENTRICITY   = .0001483
INCLINATION    = 42.9989
RA_OF_ASC_NODE = 194.3898
ARG_OF_PERICENTER = 261.5031
MEAN_ANOMALY   = 6.9306

EPHEMERIS_TYPE = 0
CLASSIFICATION_TYPE = U
NORAD_CAT_ID   = 67116
ELEMENT_SET_NO = 999
REV_AT_EPOCH   = 393
BSTAR          = -.40608E-1
MEAN_MOTION_DOT = -.227295E-1
MEAN_MOTION_DDOT = 0

CCSDS_OMM_VERS = 2.0
CREATION_DATE  = 
ORIGINATOR     = 

OBJECT_NAME    = STARLINK-35674
OBJECT_ID      = 2025-299R
CENTER_NAME    = EARTH
REF_FRAME      = TEME
TIME_SYSTEM    = UTC
MEAN_ELEMENT_THEORY = SGP/SGP4

EPOCH          = 2026-01-01T20:00:03.000384
MEAN_MOTION    = 15.52841007
ECCENTRICITY   = .0001567
INCLINATION    = 42.9991
RA_OF_ASC_NODE = 194.3851
ARG_OF_PERICENTER = 260.7748
MEAN_ANOMALY   = 9.5665

EPHEMERIS_TYPE = 0
CLASSIFICATION_TYPE = U
NORAD_CAT_ID   = 67117
ELEMENT_SET_NO = 999
REV_AT_EPOCH   = 383
BSTAR          = -.40279E-1
MEAN_MOTION_DOT = -.2256458E-1
MEAN_MOTION_DDOT = 0

CCSDS_OMM_VERS = 2.0
CREATION_DATE  = 
ORIGINATOR     = 

OBJECT_NAME    = STARLINK-35701
OBJECT_ID      = 2025-299S
CENTER_NAME    = EARTH
REF_FRAME      = TEME
TIME_SYSTEM    = UTC
MEAN_ELEMENT_THEORY = SGP/SGP4

EPOCH          = 2026-01-01T20:00:03.000384
MEAN_MOTION    = 15.52825245
ECCENTRICITY   = .0001329
INCLINATION    = 42.9993
RA_OF_ASC_NODE = 194.3805
ARG_OF_PERICENTER = 271.8793
MEAN_ANOMALY   = 0.3723

EPHEMERIS_TYPE = 0
CLASSIFICATION_TYPE = U
NORAD_CAT_ID   = 67118
ELEMENT_SET_NO = 999
REV_AT_EPOCH   = 399
BSTAR          = -.39554E-1
MEAN_MOTION_DOT = -.2219359E-1
MEAN_MOTION_DDOT = 0

CCSDS_OMM_VERS = 2.0
CREATION_DATE  = 
ORIGINATOR     = 

OBJECT_NAME    = STARLINK-36179
OBJECT_ID      = 2025-299T
CENTER_NAME    = EARTH
REF_FRAME      = TEME
TIME_SYSTEM    = UTC
MEAN_ELEMENT_THEORY = SGP/SGP4

EPOCH          = 2026-01-01T20:00:03.000384
MEAN_MOTION    = 15.52972762
ECCENTRICITY   = .0001688
INCLINATION    = 42.9987
RA_OF_ASC_NODE = 194.3709
ARG_OF_PERICENTER = 263.7275
MEAN_ANOMALY   = 12.2725

EPHEMERIS_TYPE = 0
CLASSIFICATION_TYPE = U
NORAD_CAT_ID   = 67119
ELEMENT_SET_NO = 999
REV_AT_EPOCH   = 403
BSTAR          = -.42684E-1
MEAN_MOTION_DOT = -.2384031E-1
MEAN_MOTION_DDOT = 0

